CCSDS_OMM_VERS = 2.0
CREATION_DATE  = 
ORIGINATOR     = 

OBJECT_NAME    = ARIANE 5 R/B
OBJECT_ID      = 2004-049H
CENTER_NAME    = EARTH
REF_FRAME      = TEME
TIME_SYSTEM    = UTC
MEAN_ELEMENT_THEORY = SGP/SGP4

EPOCH          = 2025-10-27T10:15:55.879776
MEAN_MOTION    = 14.84873197
ECCENTRICITY   = .0085873
INCLINATION    = 98.2507
RA_OF_ASC_NODE = 99.0613
ARG_OF_PERICENTER = 63.3415
MEAN_ANOMALY   = 297.6561

EPHEMERIS_TYPE = 0
CLASSIFICATION_TYPE = U
NORAD_CAT_ID   = 28499
ELEMENT_SET_NO = 999
REV_AT_EPOCH   = 12601
BSTAR          = .16569E-3
MEAN_MOTION_DOT = .1441E-4
MEAN_MOTION_DDOT = 0

CCSDS_OMM_VERS = 2.0
CREATION_DATE  = 
ORIGINATOR     = 

OBJECT_NAME    = CZ-2D R/B
OBJECT_ID      = 2005-024B
CENTER_NAME    = EARTH
REF_FRAME      = TEME
TIME_SYSTEM    = UTC
MEAN_ELEMENT_THEORY = SGP/SGP4

EPOCH          = 2025-10-27T11:34:15.007296
MEAN_MOTION    = 15.50114162
ECCENTRICITY   = .0007371
INCLINATION    = 97.3686
RA_OF_ASC_NODE = 306.8119
ARG_OF_PERICENTER = 133.6146
MEAN_ANOMALY   = 226.5718

EPHEMERIS_TYPE = 0
CLASSIFICATION_TYPE = U
NORAD_CAT_ID   = 28738
ELEMENT_SET_NO = 999
REV_AT_EPOCH   = 11908
BSTAR          = .48955E-3
MEAN_MOTION_DOT = .27535E-3
MEAN_MOTION_DDOT = 0

CCSDS_OMM_VERS = 2.0
CREATION_DATE  = 
ORIGINATOR     = 

OBJECT_NAME    = ALOS (DAICHI)
OBJECT_ID      = 2006-002A
CENTER_NAME    = EARTH
REF_FRAME      = TEME
TIME_SYSTEM    = UTC
MEAN_ELEMENT_THEORY = SGP/SGP4

EPOCH          = 2025-10-27T09:20:49.071840
MEAN_MOTION    = 14.69254411
ECCENTRICITY   = .0001799
INCLINATION    = 98.1015
RA_OF_ASC_NODE = 252.2301
ARG_OF_PERICENTER = 56.3225
MEAN_ANOMALY   = 303.8151

EPHEMERIS_TYPE = 0
CLASSIFICATION_TYPE = U
NORAD_CAT_ID   = 28931
ELEMENT_SET_NO = 999
REV_AT_EPOCH   = 5390
BSTAR          = .42437E-3
MEAN_MOTION_DOT = .2453E-4
MEAN_MOTION_DDOT = 0

CCSDS_OMM_VERS = 2.0
CREATION_DATE  = 
ORIGINATOR     = 

OBJECT_NAME    = H-2A R/B
OBJECT_ID      = 2006-002B
CENTER_NAME    = EARTH
REF_FRAME      = TEME
TIME_SYSTEM    = UTC
MEAN_ELEMENT_THEORY = SGP/SGP4

EPOCH          = 2025-10-27T09:16:57.899136
MEAN_MOTION    = 15.13342286
ECCENTRICITY   = .00554
INCLINATION    = 98.2288
RA_OF_ASC_NODE = 71.4089
ARG_OF_PERICENTER = 334.9779
MEAN_ANOMALY   = 24.8766

EPHEMERIS_TYPE = 0
CLASSIFICATION_TYPE = U
NORAD_CAT_ID   = 28932
ELEMENT_SET_NO = 999
REV_AT_EPOCH   = 7425
BSTAR          = .52288E-3
MEAN_MOTION_DOT = .9603E-4
MEAN_MOTION_DDOT = 0

CCSDS_OMM_VERS = 2.0
CREATION_DATE  = 
ORIGINATOR     = 

OBJECT_NAME    = RESURS-DK 1
OBJECT_ID      = 2006-021A
CENTER_NAME    = EARTH
REF_FRAME      = TEME
TIME_SYSTEM    = UTC
MEAN_ELEMENT_THEORY = SGP/SGP4

EPOCH          = 2025-10-27T04:32:18.651264
MEAN_MOTION    = 15.11780410
ECCENTRICITY   = .00068689
INCLINATION    = 69.9336
RA_OF_ASC_NODE = 222.1011
ARG_OF_PERICENTER = 298.7590
MEAN_ANOMALY   = 61.2885

EPHEMERIS_TYPE = 0
CLASSIFICATION_TYPE = U
NORAD_CAT_ID   = 29228
ELEMENT_SET_NO = 999
REV_AT_EPOCH   = 6734
BSTAR          = .23133054E-3
MEAN_MOTION_DOT = .3853E-4
MEAN_MOTION_DDOT = 0

CCSDS_OMM_VERS = 2.0
CREATION_DATE  = 
ORIGINATOR     = 

OBJECT_NAME    = CZ-4B R/B
OBJECT_ID      = 2006-046C
CENTER_NAME    = EARTH
REF_FRAME      = TEME
TIME_SYSTEM    = UTC
MEAN_ELEMENT_THEORY = SGP/SGP4

EPOCH          = 2025-10-27T03:43:35.945760
MEAN_MOTION    = 15.15193907
ECCENTRICITY   = .00348029
INCLINATION    = 97.5799
RA_OF_ASC_NODE = 340.4228
ARG_OF_PERICENTER = 12.6025
MEAN_ANOMALY   = 347.6069

EPHEMERIS_TYPE = 0
CLASSIFICATION_TYPE = U
NORAD_CAT_ID   = 29507
ELEMENT_SET_NO = 999
REV_AT_EPOCH   = 3981
BSTAR          = .28544684E-3
MEAN_MOTION_DOT = .5371E-4
MEAN_MOTION_DDOT = 0

CCSDS_OMM_VERS = 2.0
CREATION_DATE  = 
ORIGINATOR     = 

OBJECT_NAME    = CZ-2C R/B
OBJECT_ID      = 2007-010B
CENTER_NAME    = EARTH
REF_FRAME      = TEME
TIME_SYSTEM    = UTC
MEAN_ELEMENT_THEORY = SGP/SGP4

EPOCH          = 2025-10-27T06:57:51.477696
MEAN_MOTION    = 14.20182386
ECCENTRICITY   = .0058295
INCLINATION    = 98.3945
RA_OF_ASC_NODE = 55.2867
ARG_OF_PERICENTER = 322.9885
MEAN_ANOMALY   = 36.7277

EPHEMERIS_TYPE = 0
CLASSIFICATION_TYPE = U
NORAD_CAT_ID   = 31114
ELEMENT_SET_NO = 999
REV_AT_EPOCH   = 96078
BSTAR          = .12478E-3
MEAN_MOTION_DOT = .229E-5
MEAN_MOTION_DDOT = 0

CCSDS_OMM_VERS = 2.0
CREATION_DATE  = 
ORIGINATOR     = 

OBJECT_NAME    = COSMO-SKYMED 1
OBJECT_ID      = 2007-023A
CENTER_NAME    = EARTH
REF_FRAME      = TEME
TIME_SYSTEM    = UTC
MEAN_ELEMENT_THEORY = SGP/SGP4

EPOCH          = 2025-10-27T11:42:31.796064
MEAN_MOTION    = 14.95278650
ECCENTRICITY   = .0001352
INCLINATION    = 97.8875
RA_OF_ASC_NODE = 125.5968
ARG_OF_PERICENTER = 81.2600
MEAN_ANOMALY   = 278.8773

EPHEMERIS_TYPE = 0
CLASSIFICATION_TYPE = U
NORAD_CAT_ID   = 31598
ELEMENT_SET_NO = 999
REV_AT_EPOCH   = 99498
BSTAR          = .32347E-3
MEAN_MOTION_DOT = .3503E-4
MEAN_MOTION_DDOT = 0

CCSDS_OMM_VERS = 2.0
CREATION_DATE  = 
ORIGINATOR     = 

OBJECT_NAME    = COSMOS 2428
OBJECT_ID      = 2007-029A
CENTER_NAME    = EARTH
REF_FRAME      = TEME
TIME_SYSTEM    = UTC
MEAN_ELEMENT_THEORY = SGP/SGP4

EPOCH          = 2025-10-27T12:10:34.155264
MEAN_MOTION    = 14.12894262
ECCENTRICITY   = .0001742
INCLINATION    = 70.9365
RA_OF_ASC_NODE = 122.9409
ARG_OF_PERICENTER = 125.3960
MEAN_ANOMALY   = 234.7324

EPHEMERIS_TYPE = 0
CLASSIFICATION_TYPE = U
NORAD_CAT_ID   = 31792
ELEMENT_SET_NO = 999
REV_AT_EPOCH   = 94528
BSTAR          = -.1004E-3
MEAN_MOTION_DOT = -.235E-5
MEAN_MOTION_DDOT = 0

CCSDS_OMM_VERS = 2.0
CREATION_DATE  = 
ORIGINATOR     = 

OBJECT_NAME    = SL-16 R/B
OBJECT_ID      = 2007-029B
CENTER_NAME    = EARTH
REF_FRAME      = TEME
TIME_SYSTEM    = UTC
MEAN_ELEMENT_THEORY = SGP/SGP4

EPOCH          = 2025-10-27T12:04:46.008192
MEAN_MOTION    = 14.14804121
ECCENTRICITY   = .0002555
INCLINATION    = 70.9734
RA_OF_ASC_NODE = 92.3454
ARG_OF_PERICENTER = 262.9561
MEAN_ANOMALY   = 155.8131

EPHEMERIS_TYPE = 0
CLASSIFICATION_TYPE = U
NORAD_CAT_ID   = 31793
ELEMENT_SET_NO = 999
REV_AT_EPOCH   = 94653
BSTAR          = -.34128E-4
MEAN_MOTION_DOT = -.114E-5
MEAN_MOTION_DDOT = 0

CCSDS_OMM_VERS = 2.0
CREATION_DATE  = 
ORIGINATOR     = 

OBJECT_NAME    = KORONAS-FOTON
OBJECT_ID      = 2009-003A
CENTER_NAME    = EARTH
REF_FRAME      = TEME
TIME_SYSTEM    = UTC
MEAN_ELEMENT_THEORY = SGP/SGP4

EPOCH          = 2025-10-27T10:32:10.396608
MEAN_MOTION    = 15.39666945
ECCENTRICITY   = .001067
INCLINATION    = 82.4326
RA_OF_ASC_NODE = 54.0155
ARG_OF_PERICENTER = 276.1141
MEAN_ANOMALY   = 83.8888

EPHEMERIS_TYPE = 0
CLASSIFICATION_TYPE = U
NORAD_CAT_ID   = 33504
ELEMENT_SET_NO = 999
REV_AT_EPOCH   = 92521
BSTAR          = .37325E-3
MEAN_MOTION_DOT = .14798E-3
MEAN_MOTION_DDOT = 0

CCSDS_OMM_VERS = 2.0
CREATION_DATE  = 
ORIGINATOR     = 

OBJECT_NAME    = CZ-2C R/B
OBJECT_ID      = 2011-030B
CENTER_NAME    = EARTH
REF_FRAME      = TEME
TIME_SYSTEM    = UTC
MEAN_ELEMENT_THEORY = SGP/SGP4

EPOCH          = 2025-10-27T10:49:16.805280
MEAN_MOTION    = 14.80653073
ECCENTRICITY   = .0054644
INCLINATION    = 97.8337
RA_OF_ASC_NODE = 255.6106
ARG_OF_PERICENTER = 64.6413
MEAN_ANOMALY   = 48.3565

EPHEMERIS_TYPE = 0
CLASSIFICATION_TYPE = U
NORAD_CAT_ID   = 37731
ELEMENT_SET_NO = 999
REV_AT_EPOCH   = 77037
BSTAR          = .30859E-3
MEAN_MOTION_DOT = .2378E-4
MEAN_MOTION_DDOT = 0

