ARIANE 5 R/B            
1 28499U 04049H   25300.42773009  .00001441  00000+0  16569-3 0  9990
2 28499  98.2507  99.0613 0085873  63.3415 297.6561 14.84873197126014
CZ-2D R/B               
1 28738U 05024B   25300.48211814  .00027535  00000+0  48955-3 0  9993
2 28738  97.3686 306.8119 0007371 133.6146 226.5718 15.50114162119085
ALOS (DAICHI)           
1 28931U 06002A   25300.38945685  .00002453  00000+0  42437-3 0  9995
2 28931  98.1015 252.2301 0001799  56.3225 303.8151 14.69254411 53908
H-2A R/B                
1 28932U 06002B   25300.38678124  .00009603  00000+0  52288-3 0  9996
2 28932  98.2288  71.4089 0055400 334.9779  24.8766 15.13342286 74254
RESURS-DK 1             
1 29228U 06021A   25300.18910476  .00003853  00000+0  23133-3 0  9991
2 29228  69.9336 222.1011 0006868 298.7590  61.2885 15.11780410 67346
CZ-4B R/B               
1 29507U 06046C   25300.15527715  .00005371  00000+0  28545-3 0  9994
2 29507  97.5799 340.4228 0034802  12.6025 347.6069 15.15193907 39814
CZ-2C R/B               
1 31114U 07010B   25300.29017914  .00000229  00000+0  12478-3 0  9998
2 31114  98.3945  55.2867 0058295 322.9885  36.7277 14.20182386960786
COSMO-SKYMED 1          
1 31598U 07023A   25300.48786801  .00003503  00000+0  32347-3 0  9992
2 31598  97.8875 125.5968 0001352  81.2600 278.8773 14.95278650994984
COSMOS 2428             
1 31792U 07029A   25300.50733976 -.00000235  00000+0 -10040-3 0  9999
2 31792  70.9365 122.9409 0001742 125.3960 234.7324 14.12894262945283
SL-16 R/B               
1 31793U 07029B   25300.50331028 -.00000114  00000+0 -34128-4 0  9992
2 31793  70.9734  92.3454 0002555 262.9561 155.8131 14.14804121946537
KORONAS-FOTON           
1 33504U 09003A   25300.43900922  .00014798  00000+0  37325-3 0  9997
2 33504  82.4326  54.0155 0010670 276.1141  83.8888 15.39666945925214
CZ-2C R/B               
1 37731U 11030B   25300.45088895  .00002378  00000+0  30859-3 0  9990
2 37731  97.8337 255.6106 0054644  64.6413  48.3565 14.80653073770374
